STARLINK-30073          
1 56840U 23079T   26201.58335648  .00057128  00000+0  20710-2 0  9991
2 56840  43.0021 261.8681 0001644 283.3267 232.7466 15.27555344  5863
STARLINK-30078          
1 56841U 23079U   26200.93524162  .00000698  00000+0  34901-4 0  9990
2 56841  43.0034  32.5105 0001404 269.5738  90.4953 15.27580591173672
STARLINK-30135          
1 56842U 23079V   26201.34226685  .00000352  00000+0  22306-4 0  9999
2 56842  43.0015  77.9821 0001086 262.1340  97.9388 15.27578910173175
STARLINK-30137          
1 56843U 23079W   26200.07552474  .00019653  00000+0  72393-3 0  9991
2 56843  43.0042  84.8180 0000992 229.7538 130.3227 15.27482285172985
STARLINK-30136          
1 56844U 23079X   26200.93966690  .00000349  00000+0  22189-4 0  9997
2 56844  43.0016  80.1143 0001084 269.4474  90.6254 15.27580169173112
2023-081A               
1 56846U 23081A   26201.61749635  .00005699  00000+0  24105-3 0  9998
2 56846  97.3681 271.1144 0002476 100.7726 259.3790 15.23591824173104
2023-081W               
1 56866U 23081W   26201.60100340  .00003936  00000+0  15859-3 0  9991
2 56866  97.2876 264.2650 0008966 247.2580 112.7711 15.25385318173129
LONGJIANG 3             
1 56874U 23082A   26201.64205799  .00008680  00000+0  24167-3 0  9992
2 56874  49.1054 232.8425 0004540 341.8888  18.1898 15.37510743174524
STARLINK-6206           
1 56876U 23083A   26200.87319701 -.00000144  00000+0  43108-5 0  9994
2 56876  43.0052  58.9132 0001709 269.0519  91.0137 15.27575917171846
STARLINK-6209           
1 56877U 23083B   26201.28849909  .00000031  00000+0  10653-4 0  9991
2 56877  43.0027  56.0056 0001371 234.7550 125.3173 15.27575237171916
STARLINK-6182           
1 56878U 23083C   26200.94500901  .00000464  00000+0  26394-4 0  9999
2 56878  43.0034  58.5906 0001840 261.9799  98.0844 15.27578141171855
STARLINK-5707           
1 56879U 23083D   26200.94886208  .00000228  00000+0  17833-4 0  9993
2 56879  43.0026  58.6153 0001516 254.1853 105.8832 15.27576460171853
STARLINK-6177           
1 56880U 23083E   26201.31291593 -.00000138  00000+0  45172-5 0  9993
2 56880  43.0034  56.1969 0001102 274.3309  85.7417 15.27574457171919
STARLINK-5853           
1 56881U 23083F   26201.01810821 -.00000359  00000+0 -35103-5 0  9991
2 56881  43.0031  58.2746 0001434 278.0518  82.0171 15.27587241171860
STARLINK-6175           
1 56882U 23083G   26200.32569004  .00000325  00000+0  21325-4 0  9990
2 56882  43.0053  61.6823 0001252 264.9980  95.0729 15.27575947171766
STARLINK-6171           
1 56883U 23083H   26201.29877932 -.00000210  00000+0  18872-5 0  9998
2 56883  43.0019  56.0807 0000864 264.1625  95.9128 15.27576853171911
STARLINK-5515           
1 56884U 23083J   26201.28593066 -.00000111  00000+0  54964-5 0  9993
2 56884  43.0030  55.9866 0001168 260.7390  99.3330 15.27574894171913
STARLINK-5095           
1 56885U 23083K   26200.64878406 -.00000638  00000+0 -13681-4 0  9992
2 56885  43.0048  59.8044 0000963 255.8771 104.1973 15.27564122171814
STARLINK-5496           
1 56886U 23083L   26200.89747370 -.00000386  00000+0 -45200-5 0  9998
2 56886  42.9991  58.2301 0001218 242.3701 117.7027 15.27564968171859
STARLINK-6180           
1 56887U 23083M   26201.30228751 -.00000156  00000+0  38567-5 0  9995
2 56887  43.0030  60.3746 0001161 245.5556 114.5174 15.27577017171861
STARLINK-6181           
1 56888U 23083N   26200.34704265  .00000453  00000+0  26001-4 0  9996
2 56888  43.0050  65.2523 0001445 278.7140  81.3548 15.27577492171721
STARLINK-6169           
1 56889U 23083P   26200.05001170  .00000834  00000+0  39836-4 0  9993
2 56889  43.0028  63.0441 0000696 235.2404 124.8383 15.27575038171713
STARLINK-5528           
1 56890U 23083Q   26201.63678826  .00000489  00000+0  27273-4 0  9996
2 56890  43.0041  57.7281 0001003 241.6421 118.4330 15.27587042171927
STARLINK-6213           
1 56891U 23083R   26201.03466221 -.00000208  00000+0  19759-5 0  9996
2 56891  43.0036  57.5376 0001202 269.3776  90.6938 15.27574606171877
STARLINK-6219           
1 56892U 23083S   26200.95351081 -.00001030  00000+0 -27909-4 0  9994
2 56892  43.0040  62.0568 0001792 264.3604  95.7044 15.27581364171813
STARLINK-6216           
1 56893U 23083T   26200.90774435 -.00000229  00000+0  12014-5 0  9992
2 56893  43.0033  58.3064 0001092 258.6127 101.4602 15.27574536171979
STARLINK-6144           
1 56894U 23083U   26200.98936032  .00000658  00000+0  33425-4 0  9997
2 56894  43.0040  61.4700 0001317 255.7831 104.2874 15.27573289171943
STARLINK-6208           
1 56895U 23083V   26201.01504055  .00000471  00000+0  26634-4 0  9996
2 56895  43.0045  61.6614 0001521 262.0255  98.0424 15.27576209171826
STARLINK-6202           
1 56896U 23083W   26201.33811660  .00000760  00000+0  37143-4 0  9993
2 56896  43.0057  59.7839 0001574 267.5732  92.4939 15.27577153171980
STARLINK-6200           
1 56897U 23083X   26201.33554679  .00000099  00000+0  13148-4 0  9992
2 56897  43.0057  59.7681 0001595 278.7621  81.3050 15.27575867171981
