OBJECT_NAME,OBJECT_ID,EPOCH,MEAN_MOTION,ECCENTRICITY,INCLINATION,RA_OF_ASC_NODE,ARG_OF_PERICENTER,MEAN_ANOMALY,EPHEMERIS_TYPE,CLASSIFICATION_TYPE,NORAD_CAT_ID,ELEMENT_SET_NO,REV_AT_EPOCH,BSTAR,MEAN_MOTION_DOT,MEAN_MOTION_DDOT
STARLINK-30073,2023-079T,2026-07-20T14:00:01.999872,15.27555344,.0001644,43.0021,261.8681,283.3267,232.7466,0,U,56840,999,586,.20710346E-2,.57128E-3,0
STARLINK-30078,2023-079U,2026-07-19T22:26:44.875968,15.27580591,.00014044,43.0034,32.5105,269.5738,90.4953,0,U,56841,999,17367,.3490146E-4,.698E-5,0
STARLINK-30135,2023-079V,2026-07-20T08:12:51.855840,15.27578910,.00010864,43.0015,77.9821,262.1340,97.9388,0,U,56842,999,17317,.22306078E-4,.352E-5,0
STARLINK-30137,2023-079W,2026-07-19T01:48:45.337536,15.27482285,.00009922,43.0042,84.8180,229.7538,130.3227,0,U,56843,999,17298,.72392844E-3,.19653E-3,0
STARLINK-30136,2023-079X,2026-07-19T22:33:07.220160,15.27580169,.00010847,43.0016,80.1143,269.4474,90.6254,0,U,56844,999,17311,.22188597E-4,.349E-5,0
2023-081A,2023-081A,2026-07-20T14:49:11.684640,15.23591824,.00024766,97.3681,271.1144,100.7726,259.3790,0,U,56846,999,17310,.24105393E-3,.5699E-4,0
2023-081W,2023-081W,2026-07-20T14:25:26.693760,15.25385318,.00089666,97.2876,264.2650,247.2580,112.7711,0,U,56866,999,17312,.15859387E-3,.3936E-4,0
LONGJIANG 3,2023-082A,2026-07-20T15:24:33.810336,15.37510743,.00045401,49.1054,232.8425,341.8888,18.1898,0,U,56874,999,17452,.24166634E-3,.868E-4,0
STARLINK-6206,2023-083A,2026-07-19T20:57:24.221664,15.27575917,.00017096,43.0052,58.9132,269.0519,91.0137,0,U,56876,999,17184,.4310809E-5,-.144E-5,0
STARLINK-6209,2023-083B,2026-07-20T06:55:26.321376,15.27575237,.00013712,43.0027,56.0056,234.7550,125.3173,0,U,56877,999,17191,.10652604E-4,.31E-6,0
STARLINK-6182,2023-083C,2026-07-19T22:40:48.778464,15.27578141,.00018405,43.0034,58.5906,261.9799,98.0844,0,U,56878,999,17185,.26394237E-4,.464E-5,0
STARLINK-5707,2023-083D,2026-07-19T22:46:21.683712,15.27576460,.00015165,43.0026,58.6153,254.1853,105.8832,0,U,56879,999,17185,.17832933E-4,.228E-5,0
STARLINK-6177,2023-083E,2026-07-20T07:30:35.936352,15.27574457,.0001102,43.0034,56.1969,274.3309,85.7417,0,U,56880,999,17191,.4517176E-5,-.138E-5,0
STARLINK-5853,2023-083F,2026-07-20T00:26:04.549344,15.27587241,.0001434,43.0031,58.2746,278.0518,82.0171,0,U,56881,999,17186,-.3510328E-5,-.359E-5,0
STARLINK-6175,2023-083G,2026-07-19T07:48:59.619456,15.27575947,.00012528,43.0053,61.6823,264.9980,95.0729,0,U,56882,999,17176,.21324635E-4,.325E-5,0
STARLINK-6171,2023-083H,2026-07-20T07:10:14.533248,15.27576853,.00008644,43.0019,56.0807,264.1625,95.9128,0,U,56883,999,17191,.1887241E-5,-.21E-5,0
STARLINK-5515,2023-083J,2026-07-20T06:51:44.409024,15.27574894,.00011687,43.0030,55.9866,260.7390,99.3330,0,U,56884,999,17191,.5496422E-5,-.111E-5,0
STARLINK-5095,2023-083K,2026-07-19T15:34:14.942784,15.27564122,.00009639,43.0048,59.8044,255.8771,104.1973,0,U,56885,999,17181,-.13680925E-4,-.638E-5,0
STARLINK-5496,2023-083L,2026-07-19T21:32:21.727680,15.27564968,.00012186,42.9991,58.2301,242.3701,117.7027,0,U,56886,999,17185,-.4520014E-5,-.386E-5,0
STARLINK-6180,2023-083M,2026-07-20T07:15:17.640864,15.27577017,.00011615,43.0030,60.3746,245.5556,114.5174,0,U,56887,999,17186,.3856663E-5,-.156E-5,0
STARLINK-6181,2023-083N,2026-07-19T08:19:44.484960,15.27577492,.00014458,43.0050,65.2523,278.7140,81.3548,0,U,56888,999,17172,.26000662E-4,.453E-5,0
STARLINK-6169,2023-083P,2026-07-19T01:12:01.010880,15.27575038,.00006969,43.0028,63.0441,235.2404,124.8383,0,U,56889,999,17171,.39835909E-4,.834E-5,0
STARLINK-5528,2023-083Q,2026-07-20T15:16:58.505664,15.27587042,.00010034,43.0041,57.7281,241.6421,118.4330,0,U,56890,999,17192,.27273253E-4,.489E-5,0
STARLINK-6213,2023-083R,2026-07-20T00:49:54.814944,15.27574606,.00012023,43.0036,57.5376,269.3776,90.6938,0,U,56891,999,17187,.1975892E-5,-.208E-5,0
STARLINK-6219,2023-083S,2026-07-19T22:53:03.333984,15.27581364,.0001792,43.0040,62.0568,264.3604,95.7044,0,U,56892,999,17181,-.27908583E-4,-.103E-4,0
STARLINK-6216,2023-083T,2026-07-19T21:47:09.111840,15.27574536,.00010924,43.0033,58.3064,258.6127,101.4602,0,U,56893,999,17197,.1201375E-5,-.229E-5,0
STARLINK-6144,2023-083U,2026-07-19T23:44:40.731648,15.27573289,.00013176,43.0040,61.4700,255.7831,104.2874,0,U,56894,999,17194,.33425387E-4,.658E-5,0
STARLINK-6208,2023-083V,2026-07-20T00:21:39.503520,15.27576209,.00015218,43.0045,61.6614,262.0255,98.0424,0,U,56895,999,17182,.26633574E-4,.471E-5,0
STARLINK-6202,2023-083W,2026-07-20T08:06:53.274240,15.27577153,.00015744,43.0057,59.7839,267.5732,92.4939,0,U,56896,999,17198,.37142678E-4,.76E-5,0
STARLINK-6200,2023-083X,2026-07-20T08:03:11.242656,15.27575867,.00015954,43.0057,59.7681,278.7621,81.3050,0,U,56897,999,17198,.13148289E-4,.99E-6,0
